[{"OBJECT_NAME":"STARLINK-3762","OBJECT_ID":"2022-045AV","EPOCH":"2026-02-23T20:12:28.429344","MEAN_MOTION":15.08835441,"ECCENTRICITY":0.0001521,"INCLINATION":53.2159,"RA_OF_ASC_NODE":251.2876,"ARG_OF_PERICENTER":93.3312,"MEAN_ANOMALY":266.7854,"EPHEMERIS_TYPE":0,"CLASSIFICATION_TYPE":"U","NORAD_CAT_ID":52374,"ELEMENT_SET_NO":999,"REV_AT_EPOCH":21383,"BSTAR":1.7918e-5,"MEAN_MOTION_DOT":-3.0e-8,"MEAN_MOTION_DDOT":0},{"OBJECT_NAME":"STARLINK-3785","OBJECT_ID":"2022-045AW","EPOCH":"2026-02-23T20:17:46.259520","MEAN_MOTION":15.08832248,"ECCENTRICITY":0.0001543,"INCLINATION":53.2169,"RA_OF_ASC_NODE":251.2708,"ARG_OF_PERICENTER":88.5578,"MEAN_ANOMALY":271.5591,"EPHEMERIS_TYPE":0,"CLASSIFICATION_TYPE":"U","NORAD_CAT_ID":52375,"ELEMENT_SET_NO":999,"REV_AT_EPOCH":21383,"BSTAR":5.9037e-5,"MEAN_MOTION_DOT":6.52e-6,"MEAN_MOTION_DDOT":0},{"OBJECT_NAME":"STARLINK-3767","OBJECT_ID":"2022-045AX","EPOCH":"2026-02-23T20:00:01.999008","MEAN_MOTION":15.79418203,"ECCENTRICITY":6.24e-5,"INCLINATION":53.2141,"RA_OF_ASC_NODE":242.7654,"ARG_OF_PERICENTER":50.0401,"MEAN_ANOMALY":345.5218,"EPHEMERIS_TYPE":0,"CLASSIFICATION_TYPE":"U","NORAD_CAT_ID":52376,"ELEMENT_SET_NO":999,"REV_AT_EPOCH":585,"BSTAR":0.0060072,"MEAN_MOTION_DOT":0.01231238,"MEAN_MOTION_DDOT":0},{"OBJECT_NAME":"STARLINK-3805","OBJECT_ID":"2022-045AY","EPOCH":"2026-02-23T06:15:14.149152","MEAN_MOTION":15.08836496,"ECCENTRICITY":0.0001578,"INCLINATION":53.2171,"RA_OF_ASC_NODE":254.1186,"ARG_OF_PERICENTER":91.2284,"MEAN_ANOMALY":268.8889,"EPHEMERIS_TYPE":0,"CLASSIFICATION_TYPE":"U","NORAD_CAT_ID":52377,"ELEMENT_SET_NO":999,"REV_AT_EPOCH":21373,"BSTAR":1.4369e-5,"MEAN_MOTION_DOT":-5.9e-7,"MEAN_MOTION_DDOT":0},{"OBJECT_NAME":"STARLINK-3806","OBJECT_ID":"2022-045AZ","EPOCH":"2026-02-23T19:51:16.230816","MEAN_MOTION":15.08837088,"ECCENTRICITY":0.0001458,"INCLINATION":53.2154,"RA_OF_ASC_NODE":251.3535,"ARG_OF_PERICENTER":90.5741,"MEAN_ANOMALY":269.5418,"EPHEMERIS_TYPE":0,"CLASSIFICATION_TYPE":"U","NORAD_CAT_ID":52378,"ELEMENT_SET_NO":999,"REV_AT_EPOCH":21383,"BSTAR":4.7553e-5,"MEAN_MOTION_DOT":4.69e-6,"MEAN_MOTION_DDOT":0},{"OBJECT_NAME":"STARLINK-3800","OBJECT_ID":"2022-045BA","EPOCH":"2026-02-23T19:56:34.189728","MEAN_MOTION":15.08839837,"ECCENTRICITY":0.0001479,"INCLINATION":53.2155,"RA_OF_ASC_NODE":251.3381,"ARG_OF_PERICENTER":93.2518,"MEAN_ANOMALY":266.8643,"EPHEMERIS_TYPE":0,"CLASSIFICATION_TYPE":"U","NORAD_CAT_ID":52379,"ELEMENT_SET_NO":999,"REV_AT_EPOCH":21383,"BSTAR":2.5299e-5,"MEAN_MOTION_DOT":1.15e-6,"MEAN_MOTION_DDOT":0},{"OBJECT_NAME":"STARLINK-3793","OBJECT_ID":"2022-045BB","EPOCH":"2026-02-23T19:26:07.228896","MEAN_MOTION":15.08838822,"ECCENTRICITY":0.0001132,"INCLINATION":53.2162,"RA_OF_ASC_NODE":241.4616,"ARG_OF_PERICENTER":84.951,"MEAN_ANOMALY":275.1612,"EPHEMERIS_TYPE":0,"CLASSIFICATION_TYPE":"U","NORAD_CAT_ID":52380,"ELEMENT_SET_NO":999,"REV_AT_EPOCH":21396,"BSTAR":0.00017722,"MEAN_MOTION_DOT":2.534e-5,"MEAN_MOTION_DDOT":0},{"OBJECT_NAME":"STARLINK-3799","OBJECT_ID":"2022-045BD","EPOCH":"2026-02-23T19:40:40.530720","MEAN_MOTION":15.08837192,"ECCENTRICITY":0.0001824,"INCLINATION":53.2152,"RA_OF_ASC_NODE":251.3968,"ARG_OF_PERICENTER":93.1242,"MEAN_ANOMALY":266.9959,"EPHEMERIS_TYPE":0,"CLASSIFICATION_TYPE":"U","NORAD_CAT_ID":52382,"ELEMENT_SET_NO":999,"REV_AT_EPOCH":21383,"BSTAR":1.219e-5,"MEAN_MOTION_DOT":-9.4e-7,"MEAN_MOTION_DDOT":0},{"OBJECT_NAME":"STARLINK-3811","OBJECT_ID":"2022-045BE","EPOCH":"2026-02-23T18:38:24.387360","MEAN_MOTION":15.08846575,"ECCENTRICITY":0.0001409,"INCLINATION":53.2159,"RA_OF_ASC_NODE":241.6088,"ARG_OF_PERICENTER":82.4068,"MEAN_ANOMALY":277.7085,"EPHEMERIS_TYPE":0,"CLASSIFICATION_TYPE":"U","NORAD_CAT_ID":52383,"ELEMENT_SET_NO":999,"REV_AT_EPOCH":21396,"BSTAR":-3.0528e-5,"MEAN_MOTION_DOT":-7.74e-6,"MEAN_MOTION_DDOT":0},{"OBJECT_NAME":"STARLINK-3870","OBJECT_ID":"2022-049A","EPOCH":"2026-02-23T14:28:00.717312","MEAN_MOTION":15.08844868,"ECCENTRICITY":0.0001431,"INCLINATION":53.2173,"RA_OF_ASC_NODE":132.3599,"ARG_OF_PERICENTER":88.3274,"MEAN_ANOMALY":271.7882,"EPHEMERIS_TYPE":0,"CLASSIFICATION_TYPE":"U","NORAD_CAT_ID":52451,"ELEMENT_SET_NO":999,"REV_AT_EPOCH":20998,"BSTAR":5.5818e-5,"MEAN_MOTION_DOT":6.01e-6,"MEAN_MOTION_DDOT":0},{"OBJECT_NAME":"STARLINK-3909","OBJECT_ID":"2022-049B","EPOCH":"2026-02-23T11:33:06.716736","MEAN_MOTION":15.08848221,"ECCENTRICITY":0.00013456,"INCLINATION":53.2163,"RA_OF_ASC_NODE":132.7789,"ARG_OF_PERICENTER":78.2341,"MEAN_ANOMALY":281.8802,"EPHEMERIS_TYPE":0,"CLASSIFICATION_TYPE":"U","NORAD_CAT_ID":52452,"ELEMENT_SET_NO":999,"REV_AT_EPOCH":20996,"BSTAR":7.7763637e-5,"MEAN_MOTION_DOT":9.5e-6,"MEAN_MOTION_DDOT":0},{"OBJECT_NAME":"STARLINK-3872","OBJECT_ID":"2022-049C","EPOCH":"2026-02-22T22:23:34.433088","MEAN_MOTION":15.08844315,"ECCENTRICITY":8.77e-5,"INCLINATION":53.2177,"RA_OF_ASC_NODE":135.3687,"ARG_OF_PERICENTER":97.0522,"MEAN_ANOMALY":263.057,"EPHEMERIS_TYPE":0,"CLASSIFICATION_TYPE":"U","NORAD_CAT_ID":52453,"ELEMENT_SET_NO":999,"REV_AT_EPOCH":20988,"BSTAR":7.9387e-5,"MEAN_MOTION_DOT":9.76e-6,"MEAN_MOTION_DDOT":0},{"OBJECT_NAME":"STARLINK-3888","OBJECT_ID":"2022-049D","EPOCH":"2026-02-23T04:50:24.805536","MEAN_MOTION":15.08839726,"ECCENTRICITY":0.00013512,"INCLINATION":53.2184,"RA_OF_ASC_NODE":134.1624,"ARG_OF_PERICENTER":83.473,"MEAN_ANOMALY":276.6416,"EPHEMERIS_TYPE":0,"CLASSIFICATION_TYPE":"U","NORAD_CAT_ID":52454,"ELEMENT_SET_NO":999,"REV_AT_EPOCH":20992,"BSTAR":-1.9222544e-5,"MEAN_MOTION_DOT":-5.94e-6,"MEAN_MOTION_DDOT":0},{"OBJECT_NAME":"STARLINK-3890","OBJECT_ID":"2022-049E","EPOCH":"2026-02-23T04:41:11.420448","MEAN_MOTION":15.08835838,"ECCENTRICITY":0.00014208,"INCLINATION":53.2194,"RA_OF_ASC_NODE":134.1942,"ARG_OF_PERICENTER":91.2486,"MEAN_ANOMALY":268.8668,"EPHEMERIS_TYPE":0,"CLASSIFICATION_TYPE":"U","NORAD_CAT_ID":52455,"ELEMENT_SET_NO":999,"REV_AT_EPOCH":20992,"BSTAR":7.5716496e-5,"MEAN_MOTION_DOT":9.17e-6,"MEAN_MOTION_DDOT":0},{"OBJECT_NAME":"STARLINK-3896","OBJECT_ID":"2022-049F","EPOCH":"2026-02-23T14:08:11.730624","MEAN_MOTION":15.08841897,"ECCENTRICITY":0.0001284,"INCLINATION":53.2169,"RA_OF_ASC_NODE":132.4238,"ARG_OF_PERICENTER":85.9274,"MEAN_ANOMALY":274.1865,"EPHEMERIS_TYPE":0,"CLASSIFICATION_TYPE":"U","NORAD_CAT_ID":52456,"ELEMENT_SET_NO":999,"REV_AT_EPOCH":20998,"BSTAR":7.5886e-5,"MEAN_MOTION_DOT":9.2e-6,"MEAN_MOTION_DDOT":0},{"OBJECT_NAME":"STARLINK-3899","OBJECT_ID":"2022-049G","EPOCH":"2026-02-23T12:26:08.729376","MEAN_MOTION":15.08833763,"ECCENTRICITY":0.00012157,"INCLINATION":53.2176,"RA_OF_ASC_NODE":132.7305,"ARG_OF_PERICENTER":95.8491,"MEAN_ANOMALY":264.264,"EPHEMERIS_TYPE":0,"CLASSIFICATION_TYPE":"U","NORAD_CAT_ID":52457,"ELEMENT_SET_NO":999,"REV_AT_EPOCH":20997,"BSTAR":-9.808208e-6,"MEAN_MOTION_DOT":-4.44e-6,"MEAN_MOTION_DDOT":0},{"OBJECT_NAME":"STARLINK-3898","OBJECT_ID":"2022-049H","EPOCH":"2026-02-23T15:32:59.049024","MEAN_MOTION":15.08840171,"ECCENTRICITY":0.000139,"INCLINATION":53.2169,"RA_OF_ASC_NODE":132.1575,"ARG_OF_PERICENTER":99.047,"MEAN_ANOMALY":261.0679,"EPHEMERIS_TYPE":0,"CLASSIFICATION_TYPE":"U","NORAD_CAT_ID":52458,"ELEMENT_SET_NO":999,"REV_AT_EPOCH":20999,"BSTAR":3.9262e-5,"MEAN_MOTION_DOT":3.37e-6,"MEAN_MOTION_DDOT":0}]
