STARLINK-3762           
1 52374U 22045AV  26054.84199571 -.00000003  00000+0  17918-4 0  9998
2 52374  53.2159 251.2876 0001521  93.3312 266.7854 15.08835441213833
STARLINK-3785           
1 52375U 22045AW  26054.84567430  .00000652  00000+0  59037-4 0  9999
2 52375  53.2169 251.2708 0001543  88.5578 271.5591 15.08832248213837
STARLINK-3767           
1 52376U 22045AX  26054.83335647  .01231238  00000+0  60072-2 0  9998
2 52376  53.2141 242.7654 0000624  50.0401 345.5218 15.79418203  5859
STARLINK-3805           
1 52377U 22045AY  26054.26058043 -.00000059  00000+0  14369-4 0  9993
2 52377  53.2171 254.1186 0001578  91.2284 268.8889 15.08836496213734
STARLINK-3806           
1 52378U 22045AZ  26054.82727119  .00000469  00000+0  47553-4 0  9998
2 52378  53.2154 251.3535 0001458  90.5741 269.5418 15.08837088213835
STARLINK-3800           
1 52379U 22045BA  26054.83095127  .00000115  00000+0  25299-4 0  9998
2 52379  53.2155 251.3381 0001479  93.2518 266.8643 15.08839837213835
STARLINK-3793           
1 52380U 22045BB  26054.80980589  .00002534  00000+0  17722-3 0  9990
2 52380  53.2162 241.4616 0001132  84.9510 275.1612 15.08838822213967
STARLINK-3799           
1 52382U 22045BD  26054.81991355 -.00000094  00000+0  12190-4 0  9991
2 52382  53.2152 251.3968 0001824  93.1242 266.9959 15.08837192213837
STARLINK-3811           
1 52383U 22045BE  26054.77667115 -.00000774  00000+0 -30528-4 0  9992
2 52383  53.2159 241.6088 0001409  82.4068 277.7085 15.08846575213965
STARLINK-3870           
1 52451U 22049A   26054.60278608  .00000601  00000+0  55818-4 0  9995
2 52451  53.2173 132.3599 0001431  88.3274 271.7882 15.08844868209988
STARLINK-3909           
1 52452U 22049B   26054.48132774  .00000950  00000+0  77764-4 0  9996
2 52452  53.2163 132.7789 0001345  78.2341 281.8802 15.08848221209969
STARLINK-3872           
1 52453U 22049C   26053.93303742  .00000976  00000+0  79387-4 0  9992
2 52453  53.2177 135.3687 0000877  97.0522 263.0570 15.08844315209885
STARLINK-3888           
1 52454U 22049D   26054.20167599 -.00000594  00000+0 -19223-4 0  9993
2 52454  53.2184 134.1624 0001351  83.4730 276.6416 15.08839726209924
STARLINK-3890           
1 52455U 22049E   26054.19527107  .00000917  00000+0  75716-4 0  9993
2 52455  53.2194 134.1942 0001420  91.2486 268.8668 15.08835838209923
STARLINK-3896           
1 52456U 22049F   26054.58902466  .00000920  00000+0  75886-4 0  9994
2 52456  53.2169 132.4238 0001284  85.9274 274.1865 15.08841897209985
STARLINK-3899           
1 52457U 22049G   26054.51815659 -.00000444  00000+0 -98082-5 0  9992
2 52457  53.2176 132.7305 0001215  95.8491 264.2640 15.08833763209970
STARLINK-3898           
1 52458U 22049H   26054.64790566  .00000337  00000+0  39262-4 0  9999
2 52458  53.2169 132.1575 0001390  99.0470 261.0679 15.08840171209993
